{
  "type": "FeatureCollection",
  "properties": {
    "layer_name": "KSHETRA Demo Cadastral Layer",
    "status": "PROTOTYPE GIS LAYER -- NOT official cadastral data, NOT government-verified parcel boundaries. Synthetic field-boundary-style geometry generated for demonstration, centered on and scaled to this project's real seeded parcel records. Replace this file with an authorized government cadastral GeoJSON export to go live -- see src/data/geo/README.md.",
    "generated_by": "scripts one-off (not part of the app bundle) -- see src/data/geo/README.md"
  },
  "features": [
    {
      "type": "Feature",
      "properties": {
        "parcel_id": "P-0245",
        "survey_no": "125/2",
        "village": "Kamalapuram"
      },
      "geometry": {
        "type": "Polygon",
        "coordinates": [
          [
            [
              78.0465637,
              11.7585001
            ],
            [
              78.0463218,
              11.7587613
            ],
            [
              78.0459941,
              11.7589097
            ],
            [
              78.0459306,
              11.7585853
            ],
            [
              78.0456692,
              11.7583481
            ],
            [
              78.0458171,
              11.7581496
            ],
            [
              78.0460948,
              11.7579091
            ],
            [
              78.046514,
              11.757923
            ],
            [
              78.0465747,
              11.7582446
            ],
            [
              78.0465637,
              11.7585001
            ]
          ]
        ]
      }
    },
    {
      "type": "Feature",
      "properties": {
        "parcel_id": "P-0189",
        "survey_no": "118/4B",
        "village": "Kamalapuram"
      },
      "geometry": {
        "type": "Polygon",
        "coordinates": [
          [
            [
              78.0515336,
              11.7540695
            ],
            [
              78.0511749,
              11.7545281
            ],
            [
              78.0507939,
              11.7543797
            ],
            [
              78.0505217,
              11.754128
            ],
            [
              78.0507486,
              11.7537678
            ],
            [
              78.0510913,
              11.7535851
            ],
            [
              78.0511825,
              11.7537955
            ],
            [
              78.0515336,
              11.7540695
            ]
          ]
        ]
      }
    },
    {
      "type": "Feature",
      "properties": {
        "parcel_id": "P-0084",
        "survey_no": "44/1A",
        "village": "Kandhampatty"
      },
      "geometry": {
        "type": "Polygon",
        "coordinates": [
          [
            [
              78.1386501,
              11.6723324
            ],
            [
              78.1383679,
              11.672586
            ],
            [
              78.1378025,
              11.6725282
            ],
            [
              78.1374032,
              11.6722434
            ],
            [
              78.1374647,
              11.6715909
            ],
            [
              78.1378,
              11.671363
            ],
            [
              78.1381283,
              11.6714443
            ],
            [
              78.1384104,
              11.6718818
            ],
            [
              78.1386501,
              11.6723324
            ]
          ]
        ]
      }
    },
    {
      "type": "Feature",
      "properties": {
        "parcel_id": "P-0312",
        "survey_no": "204/1",
        "village": "Omalur"
      },
      "geometry": {
        "type": "Polygon",
        "coordinates": [
          [
            [
              78.0724375,
              11.7341512
            ],
            [
              78.072202,
              11.7342729
            ],
            [
              78.0718662,
              11.7343892
            ],
            [
              78.071595,
              11.7340712
            ],
            [
              78.0717092,
              11.7337511
            ],
            [
              78.0719662,
              11.7335862
            ],
            [
              78.0722818,
              11.7337294
            ],
            [
              78.0724375,
              11.7341512
            ]
          ]
        ]
      }
    },
    {
      "type": "Feature",
      "properties": {
        "parcel_id": "P-0421",
        "survey_no": "89/2B",
        "village": "Tharamangalam"
      },
      "geometry": {
        "type": "Polygon",
        "coordinates": [
          [
            [
              78.0214383,
              11.7822778
            ],
            [
              78.0210755,
              11.7825615
            ],
            [
              78.0206871,
              11.7825569
            ],
            [
              78.020353,
              11.7823256
            ],
            [
              78.0201871,
              11.7816485
            ],
            [
              78.0205373,
              11.7815375
            ],
            [
              78.021182,
              11.7813048
            ],
            [
              78.0215037,
              11.7813922
            ],
            [
              78.0215113,
              11.7820512
            ],
            [
              78.0214383,
              11.7822778
            ]
          ]
        ]
      }
    },
    {
      "type": "Feature",
      "properties": {
        "parcel_id": "P-0556",
        "survey_no": "310/2A",
        "village": "Kamalapuram"
      },
      "geometry": {
        "type": "Polygon",
        "coordinates": [
          [
            [
              78.0385913,
              11.7651225
            ],
            [
              78.0384371,
              11.7656346
            ],
            [
              78.0376266,
              11.7657253
            ],
            [
              78.0374071,
              11.7652616
            ],
            [
              78.037156,
              11.7648578
            ],
            [
              78.03752,
              11.7642071
            ],
            [
              78.0381357,
              11.7644995
            ],
            [
              78.038764,
              11.7648028
            ],
            [
              78.0385913,
              11.7651225
            ]
          ]
        ]
      }
    },
    {
      "type": "Feature",
      "properties": {
        "parcel_id": "P-0610",
        "survey_no": "104/1",
        "village": "Thoppur"
      },
      "geometry": {
        "type": "Polygon",
        "coordinates": [
          [
            [
              77.9927902,
              11.8250443
            ],
            [
              77.992684,
              11.8258307
            ],
            [
              77.9916507,
              11.8255405
            ],
            [
              77.9912831,
              11.8253933
            ],
            [
              77.9913837,
              11.824402
            ],
            [
              77.9917511,
              11.8244394
            ],
            [
              77.992434,
              11.8245004
            ],
            [
              77.9927902,
              11.8250443
            ]
          ]
        ]
      }
    },
    {
      "type": "Feature",
      "properties": {
        "parcel_id": "P-0733",
        "survey_no": "56/3",
        "village": "Kamalapuram"
      },
      "geometry": {
        "type": "Polygon",
        "coordinates": [
          [
            [
              78.0562972,
              11.750316
            ],
            [
              78.0561166,
              11.7504641
            ],
            [
              78.0556188,
              11.7501605
            ],
            [
              78.0555588,
              11.7498248
            ],
            [
              78.0558626,
              11.7495647
            ],
            [
              78.0562319,
              11.7495095
            ],
            [
              78.0565829,
              11.7497368
            ],
            [
              78.0562972,
              11.750316
            ]
          ]
        ]
      }
    }
  ]
}
